STARLINK-1133
1 15064C 20006W   21326.14670347  .00002586  00000-0  17319-3 0  3262
2 15064  53.0521 108.0757 0001367  84.0312  39.2687 15.06407689    12
